CCSDS_OMM_VERS = 2.0
CREATION_DATE  = 
ORIGINATOR     = 

OBJECT_NAME    = STARLINK-35438
OBJECT_ID      = 2025-253AE
CENTER_NAME    = EARTH
REF_FRAME      = TEME
TIME_SYSTEM    = UTC
MEAN_ELEMENT_THEORY = SGP/SGP4

EPOCH          = 2025-11-26T10:00:01.998720
MEAN_MOTION    = 15.53613752
ECCENTRICITY   = .0000977
INCLINATION    = 42.9991
RA_OF_ASC_NODE = 80.0793
ARG_OF_PERICENTER = 296.4857
MEAN_ANOMALY   = 297.5955

EPHEMERIS_TYPE = 0
CLASSIFICATION_TYPE = U
NORAD_CAT_ID   = 66347
ELEMENT_SET_NO = 999
REV_AT_EPOCH   = 430
BSTAR          = -.32578E-1
MEAN_MOTION_DOT = -.1881996E-1
MEAN_MOTION_DDOT = 0

CCSDS_OMM_VERS = 2.0
CREATION_DATE  = 
ORIGINATOR     = 

OBJECT_NAME    = STARLINK-35849
OBJECT_ID      = 2025-254A
CENTER_NAME    = EARTH
REF_FRAME      = TEME
TIME_SYSTEM    = UTC
MEAN_ELEMENT_THEORY = SGP/SGP4

EPOCH          = 2025-11-26T11:58:33.334752
MEAN_MOTION    = 15.74211632
ECCENTRICITY   = .0001388
INCLINATION    = 53.1589
RA_OF_ASC_NODE = 355.5740
ARG_OF_PERICENTER = 90.8743
MEAN_ANOMALY   = 269.2436

EPHEMERIS_TYPE = 0
CLASSIFICATION_TYPE = U
NORAD_CAT_ID   = 66348
ELEMENT_SET_NO = 999
REV_AT_EPOCH   = 428
BSTAR          = .81343E-3
MEAN_MOTION_DOT = .120333E-2
MEAN_MOTION_DDOT = 0

CCSDS_OMM_VERS = 2.0
CREATION_DATE  = 
ORIGINATOR     = 

OBJECT_NAME    = STARLINK-35848
OBJECT_ID      = 2025-254B
CENTER_NAME    = EARTH
REF_FRAME      = TEME
TIME_SYSTEM    = UTC
MEAN_ELEMENT_THEORY = SGP/SGP4

EPOCH          = 2025-11-26T10:26:38.135904
MEAN_MOTION    = 15.74214041
ECCENTRICITY   = .0001765
INCLINATION    = 53.1587
RA_OF_ASC_NODE = 355.8862
ARG_OF_PERICENTER = 47.3604
MEAN_ANOMALY   = 312.7565

EPHEMERIS_TYPE = 0
CLASSIFICATION_TYPE = U
NORAD_CAT_ID   = 66349
ELEMENT_SET_NO = 999
REV_AT_EPOCH   = 311
BSTAR          = .22772E-3
MEAN_MOTION_DOT = .32888E-3
MEAN_MOTION_DDOT = 0

CCSDS_OMM_VERS = 2.0
CREATION_DATE  = 
ORIGINATOR     = 

OBJECT_NAME    = STARLINK-35829
OBJECT_ID      = 2025-254C
CENTER_NAME    = EARTH
REF_FRAME      = TEME
TIME_SYSTEM    = UTC
MEAN_ELEMENT_THEORY = SGP/SGP4

EPOCH          = 2025-11-26T10:26:09.535776
MEAN_MOTION    = 15.74227864
ECCENTRICITY   = .0001435
INCLINATION    = 53.1587
RA_OF_ASC_NODE = 355.8837
ARG_OF_PERICENTER = 55.0857
MEAN_ANOMALY   = 305.0297

EPHEMERIS_TYPE = 0
CLASSIFICATION_TYPE = U
NORAD_CAT_ID   = 66350
ELEMENT_SET_NO = 999
REV_AT_EPOCH   = 311
BSTAR          = .10998E-2
MEAN_MOTION_DOT = .163888E-2
MEAN_MOTION_DDOT = 0

CCSDS_OMM_VERS = 2.0
CREATION_DATE  = 
ORIGINATOR     = 

OBJECT_NAME    = STARLINK-35828
OBJECT_ID      = 2025-254D
CENTER_NAME    = EARTH
REF_FRAME      = TEME
TIME_SYSTEM    = UTC
MEAN_ELEMENT_THEORY = SGP/SGP4

EPOCH          = 2025-11-26T11:57:05.733792
MEAN_MOTION    = 15.74210101
ECCENTRICITY   = .0001468
INCLINATION    = 53.1590
RA_OF_ASC_NODE = 355.5666
ARG_OF_PERICENTER = 63.1346
MEAN_ANOMALY   = 296.9824

EPHEMERIS_TYPE = 0
CLASSIFICATION_TYPE = U
NORAD_CAT_ID   = 66351
ELEMENT_SET_NO = 999
REV_AT_EPOCH   = 312
BSTAR          = .69639E-3
MEAN_MOTION_DOT = .102705E-2
MEAN_MOTION_DDOT = 0

CCSDS_OMM_VERS = 2.0
CREATION_DATE  = 
ORIGINATOR     = 

OBJECT_NAME    = STARLINK-35850
OBJECT_ID      = 2025-254E
CENTER_NAME    = EARTH
REF_FRAME      = TEME
TIME_SYSTEM    = UTC
MEAN_ELEMENT_THEORY = SGP/SGP4

EPOCH          = 2025-11-26T11:56:36.522816
MEAN_MOTION    = 15.74213103
ECCENTRICITY   = .0001573
INCLINATION    = 53.1591
RA_OF_ASC_NODE = 355.5643
ARG_OF_PERICENTER = 52.2692
MEAN_ANOMALY   = 307.8470

EPHEMERIS_TYPE = 0
CLASSIFICATION_TYPE = U
NORAD_CAT_ID   = 66352
ELEMENT_SET_NO = 999
REV_AT_EPOCH   = 312
BSTAR          = .789E-3
MEAN_MOTION_DOT = .116657E-2
MEAN_MOTION_DDOT = 0

CCSDS_OMM_VERS = 2.0
CREATION_DATE  = 
ORIGINATOR     = 

OBJECT_NAME    = STARLINK-35869
OBJECT_ID      = 2025-254F
CENTER_NAME    = EARTH
REF_FRAME      = TEME
TIME_SYSTEM    = UTC
MEAN_ELEMENT_THEORY = SGP/SGP4

EPOCH          = 2025-11-26T11:56:07.366272
MEAN_MOTION    = 15.74211056
ECCENTRICITY   = .0001514
INCLINATION    = 53.1587
RA_OF_ASC_NODE = 355.5620
ARG_OF_PERICENTER = 69.0343
MEAN_ANOMALY   = 291.0839

EPHEMERIS_TYPE = 0
CLASSIFICATION_TYPE = U
NORAD_CAT_ID   = 66353
ELEMENT_SET_NO = 999
REV_AT_EPOCH   = 312
BSTAR          = .70711E-3
MEAN_MOTION_DOT = .104319E-2
MEAN_MOTION_DDOT = 0

CCSDS_OMM_VERS = 2.0
CREATION_DATE  = 
ORIGINATOR     = 

OBJECT_NAME    = STARLINK-35895
OBJECT_ID      = 2025-254G
CENTER_NAME    = EARTH
REF_FRAME      = TEME
TIME_SYSTEM    = UTC
MEAN_ELEMENT_THEORY = SGP/SGP4

EPOCH          = 2025-11-26T10:24:12.691008
MEAN_MOTION    = 15.74225567
ECCENTRICITY   = .0001167
INCLINATION    = 53.1585
RA_OF_ASC_NODE = 355.8733
ARG_OF_PERICENTER = 109.7604
MEAN_ANOMALY   = 250.3542

EPHEMERIS_TYPE = 0
CLASSIFICATION_TYPE = U
NORAD_CAT_ID   = 66354
ELEMENT_SET_NO = 999
REV_AT_EPOCH   = 311
BSTAR          = .10862E-2
MEAN_MOTION_DOT = .161793E-2
MEAN_MOTION_DDOT = 0

CCSDS_OMM_VERS = 2.0
CREATION_DATE  = 
ORIGINATOR     = 

OBJECT_NAME    = STARLINK-35861
OBJECT_ID      = 2025-254H
CENTER_NAME    = EARTH
REF_FRAME      = TEME
TIME_SYSTEM    = UTC
MEAN_ELEMENT_THEORY = SGP/SGP4

EPOCH          = 2025-11-26T10:23:43.814400
MEAN_MOTION    = 15.74226520
ECCENTRICITY   = .0001448
INCLINATION    = 53.1586
RA_OF_ASC_NODE = 355.8718
ARG_OF_PERICENTER = 72.3585
MEAN_ANOMALY   = 287.7593

EPHEMERIS_TYPE = 0
CLASSIFICATION_TYPE = U
NORAD_CAT_ID   = 66355
ELEMENT_SET_NO = 999
REV_AT_EPOCH   = 311
BSTAR          = .14592E-2
MEAN_MOTION_DOT = .219069E-2
MEAN_MOTION_DDOT = 0

CCSDS_OMM_VERS = 2.0
CREATION_DATE  = 
ORIGINATOR     = 

OBJECT_NAME    = STARLINK-35851
OBJECT_ID      = 2025-254J
CENTER_NAME    = EARTH
REF_FRAME      = TEME
TIME_SYSTEM    = UTC
MEAN_ELEMENT_THEORY = SGP/SGP4

EPOCH          = 2025-11-26T11:54:39.857760
MEAN_MOTION    = 15.74211145
ECCENTRICITY   = .0001772
INCLINATION    = 53.1587
RA_OF_ASC_NODE = 355.5541
ARG_OF_PERICENTER = 65.9278
MEAN_ANOMALY   = 294.1927

EPHEMERIS_TYPE = 0
CLASSIFICATION_TYPE = U
NORAD_CAT_ID   = 66356
ELEMENT_SET_NO = 999
REV_AT_EPOCH   = 312
BSTAR          = .80629E-3
MEAN_MOTION_DOT = .119254E-2
MEAN_MOTION_DDOT = 0

CCSDS_OMM_VERS = 2.0
CREATION_DATE  = 
ORIGINATOR     = 

OBJECT_NAME    = STARLINK-35817
OBJECT_ID      = 2025-254K
CENTER_NAME    = EARTH
REF_FRAME      = TEME
TIME_SYSTEM    = UTC
MEAN_ELEMENT_THEORY = SGP/SGP4

EPOCH          = 2025-11-26T11:54:10.644192
MEAN_MOTION    = 15.74221363
ECCENTRICITY   = .0001993
INCLINATION    = 53.1586
RA_OF_ASC_NODE = 355.5517
ARG_OF_PERICENTER = 62.5621
MEAN_ANOMALY   = 297.5601

EPHEMERIS_TYPE = 0
CLASSIFICATION_TYPE = U
NORAD_CAT_ID   = 66357
ELEMENT_SET_NO = 999
REV_AT_EPOCH   = 312
BSTAR          = .99726E-3
MEAN_MOTION_DOT = .14823E-2
MEAN_MOTION_DDOT = 0

CCSDS_OMM_VERS = 2.0
CREATION_DATE  = 
ORIGINATOR     = 

OBJECT_NAME    = STARLINK-35807
OBJECT_ID      = 2025-254L
CENTER_NAME    = EARTH
REF_FRAME      = TEME
TIME_SYSTEM    = UTC
MEAN_ELEMENT_THEORY = SGP/SGP4

EPOCH          = 2025-11-26T11:53:41.371872
MEAN_MOTION    = 15.74207335
ECCENTRICITY   = .0001617
INCLINATION    = 53.1587
RA_OF_ASC_NODE = 355.5492
ARG_OF_PERICENTER = 68.5018
MEAN_ANOMALY   = 291.6174

EPHEMERIS_TYPE = 0
CLASSIFICATION_TYPE = U
NORAD_CAT_ID   = 66358
ELEMENT_SET_NO = 999
REV_AT_EPOCH   = 312
BSTAR          = .73261E-3
MEAN_MOTION_DOT = .108136E-2
MEAN_MOTION_DDOT = 0

