STARLINK-35438          
1 66347U 25253AE  25330.41668980 -.01881996  00000+0 -32578-1 0  9997
2 66347  42.9991  80.0793 0000977 296.4857 297.5955 15.53613752  4300
STARLINK-35849          
1 66348U 25254A   25330.49899693  .00120333  00000+0  81343-3 0  9998
2 66348  53.1589 355.5740 0001388  90.8743 269.2436 15.74211632  4288
STARLINK-35848          
1 66349U 25254B   25330.43516361  .00032888  00000+0  22772-3 0  9999
2 66349  53.1587 355.8862 0001765  47.3604 312.7565 15.74214041  3112
STARLINK-35829          
1 66350U 25254C   25330.43483259  .00163888  00000+0  10998-2 0  9991
2 66350  53.1587 355.8837 0001435  55.0857 305.0297 15.74227864  3110
STARLINK-35828          
1 66351U 25254D   25330.49798303  .00102705  00000+0  69639-3 0  9995
2 66351  53.1590 355.5666 0001468  63.1346 296.9824 15.74210101  3122
STARLINK-35850          
1 66352U 25254E   25330.49764494  .00116657  00000+0  78900-3 0  9992
2 66352  53.1591 355.5643 0001573  52.2692 307.8470 15.74213103  3123
STARLINK-35869          
1 66353U 25254F   25330.49730748  .00104319  00000+0  70711-3 0  9992
2 66353  53.1587 355.5620 0001514  69.0343 291.0839 15.74211056  3126
STARLINK-35895          
1 66354U 25254G   25330.43348022  .00161793  00000+0  10862-2 0  9996
2 66354  53.1585 355.8733 0001167 109.7604 250.3542 15.74225567  3119
STARLINK-35861          
1 66355U 25254H   25330.43314600  .00219069  00000+0  14592-2 0  9996
2 66355  53.1586 355.8718 0001448  72.3585 287.7593 15.74226520  3119
STARLINK-35851          
1 66356U 25254J   25330.49629465  .00119254  00000+0  80629-3 0  9991
2 66356  53.1587 355.5541 0001772  65.9278 294.1927 15.74211145  3120
STARLINK-35817          
1 66357U 25254K   25330.49595653  .00148230  00000+0  99726-3 0  9997
2 66357  53.1586 355.5517 0001993  62.5621 297.5601 15.74221363  3122
STARLINK-35807          
1 66358U 25254L   25330.49561773  .00108136  00000+0  73261-3 0  9991
2 66358  53.1587 355.5492 0001617  68.5018 291.6174 15.74207335  3128
